{
    "links": {
        "self": "http://www.neowsapp.com/rest/v1/neo/3841541?api_key=iIulBulltgU6a56xZRHN4H3l9WmuAYTsLGpBGhQ2"
    },
    "id": "3841541",
    "neo_reference_id": "3841541",
    "name": "(2019 HP2)",
    "designation": "2019 HP2",
    "nasa_jpl_url": "http://ssd.jpl.nasa.gov/sbdb.cgi?sstr=3841541",
    "absolute_magnitude_h": 24.7,
    "estimated_diameter": {
        "kilometers": {
            "estimated_diameter_min": 0.0305179233,
            "estimated_diameter_max": 0.0682401509
        },
        "meters": {
            "estimated_diameter_min": 30.5179232594,
            "estimated_diameter_max": 68.2401509401
        },
        "miles": {
            "estimated_diameter_min": 0.0189629525,
            "estimated_diameter_max": 0.0424024508
        },
        "feet": {
            "estimated_diameter_min": 100.1244233463,
            "estimated_diameter_max": 223.8850168104
        }
    },
    "is_potentially_hazardous_asteroid": false,
    "close_approach_data": [
        {
            "close_approach_date": "2019-05-19",
            "close_approach_date_full": "2019-May-19 07:55",
            "epoch_date_close_approach": 1558252500000,
            "relative_velocity": {
                "kilometers_per_second": "7.5709055879",
                "kilometers_per_hour": "27255.2601164484",
                "miles_per_hour": "16935.3587095787"
            },
            "miss_distance": {
                "astronomical": "0.0749719517",
                "lunar": "29.1640892113",
                "kilometers": "11215644.284062879",
                "miles": "6969078.1976665702"
            },
            "orbiting_body": "Earth"
        }
    ],
    "orbital_data": {
        "orbit_id": "6",
        "orbit_determination_date": "2019-07-27 14:01:57",
        "first_observation_date": "2019-04-24",
        "last_observation_date": "2019-05-06",
        "data_arc_in_days": 12,
        "observations_used": 29,
        "orbit_uncertainty": "8",
        "minimum_orbit_intersection": ".0745474",
        "jupiter_tisserand_invariant": "3.577",
        "epoch_osculation": "2458599.5",
        "eccentricity": ".4963887351280276",
        "semi_major_axis": "2.094201975880265",
        "inclination": "7.512021877950612",
        "ascending_node_longitude": "35.57600807695629",
        "orbital_period": "1106.945589951421",
        "perihelion_distance": "1.054663705970444",
        "perihelion_argument": "216.6823348074468",
        "aphelion_distance": "3.133740245790086",
        "perihelion_time": "2458636.094988221784",
        "mean_anomaly": "348.0986058579263",
        "mean_motion": ".3252192368513783",
        "equinox": "J2000",
        "orbit_class": {
            "orbit_class_type": "AMO",
            "orbit_class_description": "Near-Earth asteroid orbits similar to that of 1221 Amor",
            "orbit_class_range": "1.017 AU < q (perihelion) < 1.3 AU"
        }
    },
    "is_sentry_object": false
}